tleArray_g = [ {"id": 35583, "Line1": "1 35583U 93036AMA 21274.43982344  .00000752  00000-0  72421-3 0  9991", "Line2": "2 35583  73.9201 167.4874 0395121 116.2119 248.0170 13.51603755616727"}, {"id": 35584, "Line1": "1 35584U 93036AMB 21274.15932921  .00003321  00000-0  13144-2 0  9998", "Line2": "2 35584  74.0855 187.1014 0141133 197.1261 162.5100 14.23990427635761"}, {"id": 35585, "Line1": "1 35585U 93036AMC 21274.72264514  .00000605  00000-0  50901-3 0  9993", "Line2": "2 35585  73.9798   8.0046 0330863 233.3841 283.5219 13.67703389430583"}, {"id": 35586, "Line1": "1 35586U 93036AMD 21273.59844161  .00000359  00000-0  35617-3 0  9993", "Line2": "2 35586  74.0215 233.4816 0409711  67.6201  45.8883 13.49378835396712"}, {"id": 35587, "Line1": "1 35587U 93036AME 21273.32555267  .00000240  00000-0  46840-4 0  9991", "Line2": "2 35587  74.0062 148.1729 0112593 355.4626   4.5509 14.65142177438368"}, {"id": 35589, "Line1": "1 35589U 93036AMG 21274.33490467  .00065443  00000-0  14124-2 0  9999", "Line2": "2 35589  73.9604  42.1907 0046738 297.7189  61.9282 15.43057016675430"}, {"id": 35591, "Line1": "1 35591U 93036AMJ 21274.94101915  .00004209  00000-0  87036-3 0  9992", "Line2": "2 35591  73.9809   4.4790 0040511 146.9845 213.3863 14.60127510658061"}, {"id": 35592, "Line1": "1 35592U 93036AMK 21274.32528625  .00002866  00000-0  26707-3 0  9991", "Line2": "2 35592  74.0062 262.8459 0113274  46.9733 314.0868 14.89982702669473"}, {"id": 35593, "Line1": "1 35593U 93036AML 21274.89173950  .00000645  00000-0  31149-3 0  9990", "Line2": "2 35593  74.0871 144.1404 0114569 176.3230 183.8783 14.17134644633005"}, {"id": 35594, "Line1": "1 35594U 93036AMM 21274.28787709  .00001245  00000-0  28063-3 0  9995", "Line2": "2 35594  73.8188 225.5004 0060356 268.1447  91.2802 14.56429118656991"}, {"id": 35598, "Line1": "1 35598U 93036AMR 21274.55430570  .00023409  00000-0  85690-3 0  9995", "Line2": "2 35598  73.9228 342.1409 0055436 246.2090 113.3292 15.26480641675064"}, {"id": 35600, "Line1": "1 35600U 93036AMT 21272.72222878  .00002313  00000-0  42959-3 0  9998", "Line2": "2 35600  73.9830 284.5430 0057275  88.5067 272.2660 14.64740242430547"}, {"id": 35602, "Line1": "1 35602U 93036AMV 21274.81426079  .00001468  00000-0  95307-4 0  9997", "Line2": "2 35602  74.0202 115.4100 0169289 230.2656 141.3998 14.98171339669444"}, {"id": 35604, "Line1": "1 35604U 93036AMX 21272.63909070  .00002161  00000-0  67463-3 0  9996", "Line2": "2 35604  74.0206 253.9407 0061966 310.1661  49.4076 14.40319435465802"}, {"id": 35605, "Line1": "1 35605U 93036AMY 21273.73790617  .00001479  00000-0  38862-3 0  9996", "Line2": "2 35605  73.9043  79.7661 0105658 343.4747  16.2974 14.46830785434882"}, {"id": 35606, "Line1": "1 35606U 93036AMZ 21274.72958050  .00000239  00000-0  26457-3 0  9994", "Line2": "2 35606  73.8081 285.6020 0465769   9.4206 351.5258 13.37780653405179"}, {"id": 35610, "Line1": "1 35610U 93036AND 21274.66290678  .00079579  00000-0  39236-2 0  9998", "Line2": "2 35610  73.9690 136.2274 0011759 180.7819 179.3360 15.17473511655834"}, {"id": 35611, "Line1": "1 35611U 93036ANE 21274.19368821  .00001399  00000-0  43445-3 0  9996", "Line2": "2 35611  74.0313 190.0742 0043125 276.3570  83.2676 14.41482230650321"}, {"id": 35613, "Line1": "1 35613U 93036ANG 21274.91666532  .00010431  00000-0  88733-3 0  9994", "Line2": "2 35613  73.9807 332.7546 0031012 171.6311   2.9886 14.97531458664692"}, {"id": 35614, "Line1": "1 35614U 93036ANH 21274.55615570  .00000926  00000-0  23185-3 0  9999", "Line2": "2 35614  73.9659   9.0647 0100722 217.5230 141.8873 14.49940107654127"}, {"id": 35643, "Line1": "1 35643U 93036ANJ 21274.50573486  .00001945  00000-0  39059-3 0  9994", "Line2": "2 35643  74.0098 304.8665 0045297  87.9327 272.7026 14.61735155660394"}, {"id": 35644, "Line1": "1 35644U 93036ANK 21272.45842304  .00017386  00000-0  10155-2 0  9996", "Line2": "2 35644  74.0047 304.5881 0014601 108.8806 251.3971 15.11799732673210"}, {"id": 35645, "Line1": "1 35645U 93036ANL 21275.02591923  .00001307  00000-0  54853-3 0  9991", "Line2": "2 35645  73.9796  17.2442 0088657 155.8964 204.6372 14.24788619652724"}, {"id": 35646, "Line1": "1 35646U 93036ANM 21274.42415800  .00000446  00000-0  47092-3 0  9994", "Line2": "2 35646  73.8713 320.3344 0474440 330.3964  41.0190 13.37133514613405"}, {"id": 35647, "Line1": "1 35647U 93036ANN 21274.24100483  .00000727  00000-0  26291-3 0  9993", "Line2": "2 35647  74.0251 241.2693 0054868 349.9537  10.0513 14.34483340456205"}, {"id": 35650, "Line1": "1 35650U 93036ANR 21274.85271102  .00001411  00000-0  36146-3 0  9992", "Line2": "2 35650  74.0584  68.7340 0031426 164.9741 266.8483 14.51001501652373"}, {"id": 35655, "Line1": "1 35655U 93036ANW 21273.31460407  .00003357  00000-0  59477-3 0  9998", "Line2": "2 35655  73.9985 262.2731 0013171 126.9394 233.2984 14.67655037660284"}, {"id": 35658, "Line1": "1 35658U 93036ANZ 21267.20147025  .00001850  00000-0  43863-3 0  9998", "Line2": "2 35658  74.0155  75.5652 0020798 168.9753 191.1870 14.54606584652627"}, {"id": 35660, "Line1": "1 35660U 93036APB 21274.27159903  .00000354  00000-0  11235-3 0  9990", "Line2": "2 35660  74.0409 113.1259 0019987 280.3704 194.8864 14.43460406437068"}, {"id": 35661, "Line1": "1 35661U 93036APC 21275.00779555  .00001129  00000-0  19088-3 0  9999", "Line2": "2 35661  74.0234 189.2523 0129009 320.7633  38.4236 14.65377985657568"}];