OBJECT_NAME,OBJECT_ID,EPOCH,MEAN_MOTION,ECCENTRICITY,INCLINATION,RA_OF_ASC_NODE,ARG_OF_PERICENTER,MEAN_ANOMALY,EPHEMERIS_TYPE,CLASSIFICATION_TYPE,NORAD_CAT_ID,ELEMENT_SET_NO,REV_AT_EPOCH,BSTAR,MEAN_MOTION_DOT,MEAN_MOTION_DDOT
COSMOS 2251 DEB,1993-036AMA,2021-10-01T10:33:20.745216,13.51603755,.0395121,73.9201,167.4874,116.2119,248.0170,0,U,35583,999,61672,.72421E-3,.752E-5,0
COSMOS 2251 DEB,1993-036AMB,2021-10-01T03:49:26.043744,14.23990427,.0141133,74.0855,187.1014,197.1261,162.5100,0,U,35584,999,63576,.13144E-2,.3321E-4,0
COSMOS 2251 DEB,1993-036AMC,2021-10-01T17:20:36.540096,13.67703389,.0330863,73.9798,8.0046,233.3841,283.5219,0,U,35585,999,43058,.50901E-3,.605E-5,0
COSMOS 2251 DEB,1993-036AMD,2021-09-30T14:21:45.355104,13.49378835,.0409711,74.0215,233.4816,67.6201,45.8883,0,U,35586,999,39671,.35617E-3,.359E-5,0
COSMOS 2251 DEB,1993-036AME,2021-09-30T07:48:47.750688,14.65142177,.0112593,74.0062,148.1729,355.4626,4.5509,0,U,35587,999,43836,.4684E-4,.24E-5,0
COSMOS 2251 DEB,1993-036AMG,2021-10-01T08:02:15.763488,15.43057016,.0046738,73.9604,42.1907,297.7189,61.9282,0,U,35589,999,67543,.14124E-2,.65443E-3,0
COSMOS 2251 DEB,1993-036AMJ,2021-10-01T22:35:04.054560,14.60127510,.0040511,73.9809,4.4790,146.9845,213.3863,0,U,35591,999,65806,.87036E-3,.4209E-4,0
COSMOS 2251 DEB,1993-036AMK,2021-10-01T07:48:24.732000,14.89982702,.0113274,74.0062,262.8459,46.9733,314.0868,0,U,35592,999,66947,.26707E-3,.2866E-4,0
COSMOS 2251 DEB,1993-036AML,2021-10-01T21:24:06.292800,14.17134644,.0114569,74.0871,144.1404,176.3230,183.8783,0,U,35593,999,63300,.31149E-3,.645E-5,0
COSMOS 2251 DEB,1993-036AMM,2021-10-01T06:54:32.580576,14.56429118,.0060356,73.8188,225.5004,268.1447,91.2802,0,U,35594,999,65699,.28063E-3,.1245E-4,0
COSMOS 2251 DEB,1993-036AMR,2021-10-01T13:18:12.012480,15.26480641,.0055436,73.9228,342.1409,246.2090,113.3292,0,U,35598,999,67506,.8569E-3,.23409E-3,0
COSMOS 2251 DEB,1993-036AMT,2021-09-29T17:20:00.566592,14.64740242,.0057275,73.9830,284.5430,88.5067,272.2660,0,U,35600,999,43054,.42959E-3,.2313E-4,0
COSMOS 2251 DEB,1993-036AMV,2021-10-01T19:32:32.132256,14.98171339,.0169289,74.0202,115.4100,230.2656,141.3998,0,U,35602,999,66944,.95307E-4,.1468E-4,0
COSMOS 2251 DEB,1993-036AMX,2021-09-29T15:20:17.436480,14.40319435,.0061966,74.0206,253.9407,310.1661,49.4076,0,U,35604,999,46580,.67463E-3,.2161E-4,0
COSMOS 2251 DEB,1993-036AMY,2021-09-30T17:42:35.093088,14.46830785,.0105658,73.9043,79.7661,343.4747,16.2974,0,U,35605,999,43488,.38862E-3,.1479E-4,0
COSMOS 2251 DEB,1993-036AMZ,2021-10-01T17:30:35.755200,13.37780653,.0465769,73.8081,285.6020,9.4206,351.5258,0,U,35606,999,40517,.26457E-3,.239E-5,0
COSMOS 2251 DEB,1993-036AND,2021-10-01T15:54:35.145792,15.17473511,.0011759,73.9690,136.2274,180.7819,179.3360,0,U,35610,999,65583,.39236E-2,.79579E-3,0
COSMOS 2251 DEB,1993-036ANE,2021-10-01T04:38:54.661344,14.41482230,.0043125,74.0313,190.0742,276.3570,83.2676,0,U,35611,999,65032,.43445E-3,.1399E-4,0
COSMOS 2251 DEB,1993-036ANG,2021-10-01T21:59:59.883648,14.97531458,.0031012,73.9807,332.7546,171.6311,2.9886,0,U,35613,999,66469,.88733E-3,.10431E-3,0
COSMOS 2251 DEB,1993-036ANH,2021-10-01T13:20:51.852480,14.49940107,.0100722,73.9659,9.0647,217.5230,141.8873,0,U,35614,999,65412,.23185E-3,.926E-5,0
COSMOS 2251 DEB,1993-036ANJ,2021-10-01T12:08:15.491904,14.61735155,.0045297,74.0098,304.8665,87.9327,272.7026,0,U,35643,999,66039,.39059E-3,.1945E-4,0
COSMOS 2251 DEB,1993-036ANK,2021-09-29T11:00:07.750656,15.11799732,.0014601,74.0047,304.5881,108.8806,251.3971,0,U,35644,999,67321,.10155E-2,.17386E-3,0
COSMOS 2251 DEB,1993-036ANL,2021-10-02T00:37:19.421472,14.24788619,.0088657,73.9796,17.2442,155.8964,204.6372,0,U,35645,999,65272,.54853E-3,.1307E-4,0
COSMOS 2251 DEB,1993-036ANM,2021-10-01T10:10:47.251200,13.37133514,.047444,73.8713,320.3344,330.3964,41.0190,0,U,35646,999,61340,.47092E-3,.446E-5,0
COSMOS 2251 DEB,1993-036ANN,2021-10-01T05:47:02.817312,14.34483340,.0054868,74.0251,241.2693,349.9537,10.0513,0,U,35647,999,45620,.26291E-3,.727E-5,0
COSMOS 2251 DEB,1993-036ANR,2021-10-01T20:27:54.232128,14.51001501,.0031426,74.0584,68.7340,164.9741,266.8483,0,U,35650,999,65237,.36146E-3,.1411E-4,0
COSMOS 2251 DEB,1993-036ANW,2021-09-30T07:33:01.791648,14.67655037,.0013171,73.9985,262.2731,126.9394,233.2984,0,U,35655,999,66028,.59477E-3,.3357E-4,0
COSMOS 2251 DEB,1993-036ANZ,2021-09-24T04:50:07.029600,14.54606584,.0020798,74.0155,75.5652,168.9753,191.1870,0,U,35658,999,65262,.43863E-3,.185E-4,0
COSMOS 2251 DEB,1993-036APB,2021-10-01T06:31:06.156192,14.43460406,.0019987,74.0409,113.1259,280.3704,194.8864,0,U,35660,999,43706,.11235E-3,.354E-5,0
COSMOS 2251 DEB,1993-036APC,2021-10-02T00:11:13.535520,14.65377985,.0129009,74.0234,189.2523,320.7633,38.4236,0,U,35661,999,65756,.19088E-3,.1129E-4,0
